IRIDIUM 116             
1 43072U 17083C   25242.83841503  .00000115  00000+0  34031-4 0  9993
2 43072  86.3909  83.3903 0002363  88.0325 272.1141 14.34217848402555
IRIDIUM 130             
1 43073U 17083D   25242.80670212  .00000106  00000+0  30922-4 0  9993
2 43073  86.3917  83.6511 0002403  93.6660 266.4810 14.34217926402491
IRIDIUM 151             
1 43074U 17083E   25242.85110104  .00000015  00000+0 -16715-5 0  9993
2 43074  86.3907  83.4362 0002238  87.0556 273.0896 14.34217673402521
IRIDIUM 134             
1 43075U 17083F   25242.81938776  .00000084  00000+0  22817-4 0  9997
2 43075  86.3912  83.4536 0002318  93.4254 266.7207 14.34217771402485
IRIDIUM 137             
1 43076U 17083G   25242.83207481  .00000009  00000+0 -37473-5 0  9995
2 43076  86.3910  83.5352 0002530  78.6700 281.4780 14.34217396402559
IRIDIUM 141             
1 43077U 17083H   25242.82573014  .00000107  00000+0  31227-4 0  9991
2 43077  86.3908  83.3848 0001984  86.8429 273.2993 14.34217905402557
IRIDIUM 153             
1 43078U 17083J   25242.84767719  .00000013  00000+0 -24656-5 0  9997
2 43078  86.3930  51.8281 0001621  95.6237 264.5144 14.34217570403669
IRIDIUM 131             
1 43079U 17083K   25242.81304477  .00000016  00000+0 -14238-5 0  9991
2 43079  86.3913  83.5570 0002047  84.3441 275.7988 14.34217696402487
